CCSDS_OMM_VERS = 2.0
CREATION_DATE  = 
ORIGINATOR     = 

OBJECT_NAME    = COSMOS 2550
OBJECT_ID      = 2021-056A
CENTER_NAME    = EARTH
REF_FRAME      = TEME
TIME_SYSTEM    = UTC
MEAN_ELEMENT_THEORY = SGP/SGP4

EPOCH          = 2025-10-29T12:22:03.738720
MEAN_MOTION    = 15.33826342
ECCENTRICITY   = .0008383
INCLINATION    = 67.1407
RA_OF_ASC_NODE = 77.7597
ARG_OF_PERICENTER = 269.8303
MEAN_ANOMALY   = 90.1891

EPHEMERIS_TYPE = 0
CLASSIFICATION_TYPE = U
NORAD_CAT_ID   = 48865
ELEMENT_SET_NO = 999
REV_AT_EPOCH   = 24334
BSTAR          = .26532E-4
MEAN_MOTION_DOT = .681E-5
MEAN_MOTION_DDOT = 0

CCSDS_OMM_VERS = 2.0
CREATION_DATE  = 
ORIGINATOR     = 

OBJECT_NAME    = GSLV R/B
OBJECT_ID      = 2022-138AN
CENTER_NAME    = EARTH
REF_FRAME      = TEME
TIME_SYSTEM    = UTC
MEAN_ELEMENT_THEORY = SGP/SGP4

EPOCH          = 2025-10-29T12:09:00.254016
MEAN_MOTION    = 14.95760494
ECCENTRICITY   = .0018993
INCLINATION    = 87.3853
RA_OF_ASC_NODE = 210.2744
ARG_OF_PERICENTER = 269.0514
MEAN_ANOMALY   = 90.8540

EPHEMERIS_TYPE = 0
CLASSIFICATION_TYPE = U
NORAD_CAT_ID   = 54149
ELEMENT_SET_NO = 999
REV_AT_EPOCH   = 16431
BSTAR          = .38298E-3
MEAN_MOTION_DOT = .4309E-4
MEAN_MOTION_DDOT = 0

CCSDS_OMM_VERS = 2.0
CREATION_DATE  = 
ORIGINATOR     = 

OBJECT_NAME    = ACS3
OBJECT_ID      = 2024-077B
CENTER_NAME    = EARTH
REF_FRAME      = TEME
TIME_SYSTEM    = UTC
MEAN_ELEMENT_THEORY = SGP/SGP4

EPOCH          = 2025-10-29T12:16:29.529696
MEAN_MOTION    = 13.82867852
ECCENTRICITY   = .0030882
INCLINATION    = 97.3420
RA_OF_ASC_NODE = 267.9024
ARG_OF_PERICENTER = 30.6447
MEAN_ANOMALY   = 329.6509

EPHEMERIS_TYPE = 0
CLASSIFICATION_TYPE = U
NORAD_CAT_ID   = 59588
ELEMENT_SET_NO = 999
REV_AT_EPOCH   = 7602
BSTAR          = .92336E-2
MEAN_MOTION_DOT = .10085E-3
MEAN_MOTION_DDOT = 0

