COSMOS 2550             
1 48865U 21056A   25302.51532105  .00000681  00000+0  26532-4 0  9995
2 48865  67.1407  77.7597 0008383 269.8303  90.1891 15.33826342243344
GSLV R/B                
1 54149U 22138AN  25302.50625294  .00004309  00000+0  38298-3 0  9992
2 54149  87.3853 210.2744 0018993 269.0514  90.8540 14.95760494164316
ACS3                    
1 59588U 24077B   25302.51145289  .00010085  00000+0  92336-2 0  9990
2 59588  97.3420 267.9024 0030882  30.6447 329.6509 13.82867852 76026
